OBJECT_NAME,OBJECT_ID,EPOCH,MEAN_MOTION,ECCENTRICITY,INCLINATION,RA_OF_ASC_NODE,ARG_OF_PERICENTER,MEAN_ANOMALY,EPHEMERIS_TYPE,CLASSIFICATION_TYPE,NORAD_CAT_ID,ELEMENT_SET_NO,REV_AT_EPOCH,BSTAR,MEAN_MOTION_DOT,MEAN_MOTION_DDOT
APRIZESAT 2,2004-025A,2026-07-19T10:20:20.192064,14.38048752,.01061985,98.1047,4.5905,152.1366,208.5566,0,U,28366,999,15627,.40319825E-4,.88E-6,0
SAUDICOMSAT 1,2004-025D,2026-07-19T11:08:22.980768,14.55495185,.00308826,98.5779,211.4679,285.3171,74.4613,0,U,28369,999,16882,.40109597E-4,.125E-5,0
SAUDICOMSAT 2,2004-025E,2026-07-19T11:44:19.664736,14.49995556,.0055902,98.6643,213.6488,160.7180,199.6146,0,U,28370,999,16478,.33021716E-4,.81E-6,0
APRIZESAT 1,2004-025G,2026-07-19T11:32:16.122624,14.51793378,.00456348,98.6310,212.0859,58.0015,302.5602,0,U,28372,999,16659,.34563451E-4,.92E-6,0
NANOSAT-1,2004-049B,2026-07-19T14:48:24.840288,14.80215295,.00041335,98.2316,338.0790,170.4307,189.6983,0,U,28493,999,16024,.64435752E-4,.434E-5,0
SAUDICOMSAT 7,2007-012C,2026-07-19T11:05:37.526496,14.66139018,.00570302,98.3802,175.2584,95.2222,265.5492,0,U,31119,999,2716,.5156065E-4,.237E-5,0
SAUDICOMSAT 6,2007-012E,2026-07-19T10:47:26.647872,14.62586319,.00707027,98.4121,168.5714,225.6588,133.8805,0,U,31121,999,2490,.37985734E-4,.146E-5,0
SAUDICOMSAT 5,2007-012H,2026-07-19T11:00:22.055040,14.68195208,.00479641,98.3514,175.9956,25.6366,334.7201,0,U,31124,999,2833,.60913698E-4,.303E-5,0
SAUDICOMSAT 3,2007-012J,2026-07-19T11:58:46.200576,14.70753129,.00379963,98.3168,176.5831,311.3194,48.4744,0,U,31125,999,2957,.61291873E-4,.323E-5,0
SAUDICOMSAT 4,2007-012L,2026-07-19T11:18:24.637536,14.64537401,.00638396,98.4008,173.7042,156.4384,203.9765,0,U,31127,999,2601,.4312069E-4,.182E-5,0
APRIZESAT 4,2009-041D,2026-07-19T11:44:12.852960,14.83917122,.00424971,98.1400,276.4519,215.2836,144.5563,0,U,35684,999,91615,.42286012E-4,.297E-5,0
APRIZESAT 3,2009-041F,2026-07-19T09:33:54.257760,14.96315905,.00607095,98.2107,355.1744,321.8582,37.8349,0,U,35686,999,92119,.21299609E-4,.179E-5,0
S-NET D,2018-014G,2026-07-19T10:58:02.640864,15.16938938,.00062206,97.5323,105.0470,266.2708,93.7813,0,U,43186,999,46365,.1150934E-3,.2203E-4,0
S-NET B,2018-014H,2026-07-19T14:25:26.024160,15.16909262,.0006883,97.5328,105.1777,259.6340,100.4117,0,U,43187,999,46367,.12337355E-3,.2364E-4,0
S-NET A,2018-014J,2026-07-19T06:11:12.497856,15.16946207,.00067541,97.5338,105.0516,262.1827,97.8639,0,U,43188,999,46362,.1138749E-3,.2179E-4,0
S-NET C,2018-014K,2026-07-19T14:31:16.154112,15.16900273,.0008164,97.5354,105.4763,251.7007,108.3338,0,U,43189,999,46222,.12430516E-3,.2382E-4,0
SALSAT,2020-068K,2026-07-19T10:52:42.083040,15.30206359,.00096718,97.8865,205.4942,177.8105,182.3178,0,U,46495,999,32029,.13371977E-3,.3827E-4,0
OOV-CUBE (TUBSAT-30),2024-128F,2026-07-19T11:00:32.618304,15.02883584,.00405598,61.9942,113.0338,140.9471,219.4561,0,U,60240,999,11096,.83259311E-4,.925E-5,0
LPNTSAT-001 (IOD-1),2026-065A,2026-07-18T21:39:22.638240,15.18678997,.00146853,97.3975,79.7370,251.9820,107.9814,0,U,68408,999,1707,.63359703E-4,.1249E-4,0
CHUANG XIN 26 (CX-26),2026-158A,2026-07-19T14:45:36.165024,14.25124094,.00049298,49.9833,261.7658,314.6012,45.4498,0,U,69972,999,133,.31568195E-4,-.85E-6,0
