APRIZESAT 2             
1 28366U 04025A   26200.43078926  .00000088  00000+0  40320-4 0  9993
2 28366  98.1047   4.5905 0106198 152.1366 208.5566 14.38048752156273
SAUDICOMSAT 1           
1 28369U 04025D   26200.46415487  .00000125  00000+0  40110-4 0  9995
2 28369  98.5779 211.4679 0030882 285.3171  74.4613 14.55495185168820
SAUDICOMSAT 2           
1 28370U 04025E   26200.48911649  .00000081  00000+0  33022-4 0  9995
2 28370  98.6643 213.6488 0055902 160.7180 199.6146 14.49995556164783
APRIZESAT 1             
1 28372U 04025G   26200.48074216  .00000092  00000+0  34563-4 0  9990
2 28372  98.6310 212.0859 0045634  58.0015 302.5602 14.51793378166592
NANOSAT-1               
1 28493U 04049B   26200.61695417  .00000434  00000+0  64436-4 0  9999
2 28493  98.2316 338.0790 0004133 170.4307 189.6983 14.80215295160244
SAUDICOMSAT 7           
1 31119U 07012C   26200.46223989  .00000237  00000+0  51561-4 0  9991
2 31119  98.3802 175.2584 0057030  95.2222 265.5492 14.66139018 27164
SAUDICOMSAT 6           
1 31121U 07012E   26200.44961398  .00000146  00000+0  37986-4 0  9999
2 31121  98.4121 168.5714 0070702 225.6588 133.8805 14.62586319 24907
SAUDICOMSAT 5           
1 31124U 07012H   26200.45858860  .00000303  00000+0  60914-4 0  9994
2 31124  98.3514 175.9956 0047964  25.6366 334.7201 14.68195208 28333
SAUDICOMSAT 3           
1 31125U 07012J   26200.49914584  .00000323  00000+0  61292-4 0  9997
2 31125  98.3168 176.5831 0037996 311.3194  48.4744 14.70753129 29579
SAUDICOMSAT 4           
1 31127U 07012L   26200.47111849  .00000182  00000+0  43121-4 0  9994
2 31127  98.4008 173.7042 0063839 156.4384 203.9765 14.64537401 26015
APRIZESAT 4             
1 35684U 09041D   26200.48903765  .00000297  00000+0  42286-4 0  9995
2 35684  98.1400 276.4519 0042497 215.2836 144.5563 14.83917122916155
APRIZESAT 3             
1 35686U 09041F   26200.39854465  .00000179  00000+0  21300-4 0  9992
2 35686  98.2107 355.1744 0060709 321.8582  37.8349 14.96315905921196
S-NET D                 
1 43186U 18014G   26200.45697501  .00002203  00000+0  11509-3 0  9998
2 43186  97.5323 105.0470 0006220 266.2708  93.7813 15.16938938463659
S-NET B                 
1 43187U 18014H   26200.60099565  .00002364  00000+0  12337-3 0  9990
2 43187  97.5328 105.1777 0006883 259.6340 100.4117 15.16909262463672
S-NET A                 
1 43188U 18014J   26200.25778354  .00002179  00000+0  11387-3 0  9990
2 43188  97.5338 105.0516 0006754 262.1827  97.8639 15.16946207463623
S-NET C                 
1 43189U 18014K   26200.60504808  .00002382  00000+0  12431-3 0  9998
2 43189  97.5354 105.4763 0008164 251.7007 108.3338 15.16900273462223
SALSAT                  
1 46495U 20068K   26200.45326485  .00003827  00000+0  13372-3 0  9999
2 46495  97.8865 205.4942 0009671 177.8105 182.3178 15.30206359320291
OOV-CUBE (TUBSAT-30)    
1 60240U 24128F   26200.45871086  .00000925  00000+0  83259-4 0  9994
2 60240  61.9942 113.0338 0040559 140.9471 219.4561 15.02883584110962
LPNTSAT-001 (IOD-1)     
1 68408U 26065A   26199.90234535  .00001249  00000+0  63360-4 0  9990
2 68408  97.3975  79.7370 0014685 251.9820 107.9814 15.18678997 17078
CHUANG XIN 26 (CX-26)   
1 69972U 26158A   26200.61500191 -.00000085  00000+0  31568-4 0  9998
2 69972  49.9833 261.7658 0004929 314.6012  45.4498 14.25124094  1330
